[
    {
        "Altitude(m)": 559391.9664542974,
        "Argument of Periapsis(deg)": 0.033114955553567506,
        "Eccentricity": 0.0,
        "Inclination(deg)": 53.0,
        "Latitude(deg)": 50.92939447810471,
        "Longitude(deg)": -91.59748368651505,
        "Mean Anomaly(deg)": -284.0874356621121,
        "RAAN(deg)": 304.9507168426401,
        "Satellite Name": "Starlink Shell 1 1343",
        "Satellite Number": 1343,
        "Semi-Major Axis(m)": 6931778.249405717,
        "Time(s)": 950
    },
    {
        "Altitude(m)": 559435.2212678895,
        "Argument of Periapsis(deg)": 0.03346353403307874,
        "Eccentricity": 0.0,
        "Inclination(deg)": 53.0,
        "Latitude(deg)": 51.11813357693673,
        "Longitude(deg)": -90.69092850738589,
        "Mean Anomaly(deg)": -283.46060445855534,
        "RAAN(deg)": 304.9501980725626,
        "Satellite Name": "Starlink Shell 1 1343",
        "Satellite Number": 1343,
        "Semi-Major Axis(m)": 6931778.249405717,
        "Time(s)": 960
    },
    {
        "Altitude(m)": 559476.6863638461,
        "Argument of Periapsis(deg)": 0.03381211251258998,
        "Eccentricity": 0.0,
        "Inclination(deg)": 53.0,
        "Latitude(deg)": 51.29912583842422,
        "Longitude(deg)": -89.77678440427042,
        "Mean Anomaly(deg)": -282.8337732549987,
        "RAAN(deg)": 304.94967930248515,
        "Satellite Name": "Starlink Shell 1 1343",
        "Satellite Number": 1343,
        "Semi-Major Axis(m)": 6931778.249405717,
        "Time(s)": 970
    },
    {
        "Altitude(m)": 559516.3367000152,
        "Argument of Periapsis(deg)": 0.034160690992101214,
        "Eccentricity": 0.0,
        "Inclination(deg)": 53.0,
        "Latitude(deg)": 51.47226068381381,
        "Longitude(deg)": -88.85526696299557,
        "Mean Anomaly(deg)": -282.2069420514419,
        "RAAN(deg)": 304.9491605324077,
        "Satellite Name": "Starlink Shell 1 1343",
        "Satellite Number": 1343,
        "Semi-Major Axis(m)": 6931778.249405717,
        "Time(s)": 980
    },
    {
        "Altitude(m)": 559554.1483510652,
        "Argument of Periapsis(deg)": 0.034509269471612446,
        "Eccentricity": 0.0,
        "Inclination(deg)": 53.0,
        "Latitude(deg)": 51.63743040018445,
        "Longitude(deg)": -87.92660771203985,
        "Mean Anomaly(deg)": -281.5801108478852,
        "RAAN(deg)": 304.9486417623302,
        "Satellite Name": "Starlink Shell 1 1343",
        "Satellite Number": 1343,
        "Semi-Major Axis(m)": 6931778.249405717,
        "Time(s)": 990
    }
]